     2.100          NAVIGATION                              RINEX VERSION / TYPE
fic2rin                                 01/04/2018 00:13:00 PGM / RUN BY / DATE
                                                            END OF HEADER
 8 18  1  3  1 59 44.0 -.863345339894D-04 -.136424205266D-11  .000000000000D+00
     .130000000000D+02 -.319062500000D+02  .478019911448D-08  .137780742184D+01
    -.166147947311D-05  .313776114490D-02 -.130757689476D-05  .515374204445D+04
     .266384000000D+06 -.745058059692D-08 -.118143365507D+01  .745058059692D-08
     .968174817602D+00  .403593750000D+03 -.608324818210D+00 -.866786105120D-08
    -.211437378644D-09  .100000000000D+01  .198200000000D+04  .000000000000D+00
     .240000000000D+01  .000000000000D+00  .558793544769D-08  .130000000000D+02
     .259206000000D+06  .400000000000D+01
12 18  1  3  1 59 44.0  .357375014573D-03 -.181898940355D-11  .000000000000D+00
     .140000000000D+02  .155500000000D+03  .397337979293D-08 -.253888977982D+01
     .811368227005D-05  .673121365253D-02  .560842454433D-05  .515366847992D+04
     .266384000000D+06  .968575477600D-07 -.215624307387D+01 -.502914190292D-07
     .987813615065D+00  .286187500000D+03  .910670650254D+00 -.783068332225D-08
     .376444251843D-09  .100000000000D+01  .198200000000D+04  .000000000000D+00
     .240000000000D+01  .000000000000D+00 -.125728547573D-07  .140000000000D+02
     .259206000000D+06  .400000000000D+01
 1 18  1  3  2  0  0.0 -.212308950722D-04 -.272848410532D-11  .000000000000D+00
     .200000000000D+02 -.162281250000D+03  .393337812670D-08 -.128197674942D+01
    -.842288136482D-05  .722772360314D-02  .102464109659D-04  .515368600464D+04
     .266400000000D+06  .249594449997D-06 -.117297580589D+00 -.707805156708D-07
     .970149029938D+00  .187437500000D+03  .621693379088D+00 -.777103798064D-08
    -.208222959036D-09  .100000000000D+01  .198200000000D+04  .000000000000D+00
     .240000000000D+01  .000000000000D+00  .558793544769D-08  .200000000000D+02
     .259206000000D+06  .400000000000D+01
 2 18  1  3  2  0  0.0  .238604843616D-03 -.101181285572D-10  .000000000000D+00
     .110000000000D+02 -.132375000000D+03  .465983695806D-08 -.871090354170D+00
    -.678747892380D-05  .175681647379D-01  .924058258533D-05  .515365917397D+04
     .266400000000D+06 -.128522515297D-06 -.175334160880D+00  .340864062309D-06
     .949145681007D+00  .198875000000D+03 -.191839298872D+01 -.838249202158D-08
    -.200008331150D-09  .100000000000D+01  .198200000000D+04  .000000000000D+00
     .240000000000D+01  .000000000000D+00 -.204890966415D-07  .110000000000D+02
     .259206000000D+06  .400000000000D+01
 3 18  1  3  2  0  0.0 -.165747478604D-04  .648014975013D-11  .000000000000D+00
     .160000000000D+02  .609375000000D+01  .444911389488D-08 -.231471427021D+01
     .435858964920D-06  .117910455447D-02  .103004276752D-04  .515358338165D+04
     .266400000000D+06  .186264514923D-07  .924945095356D+00  .000000000000D+00
     .960381400952D+00  .181125000000D+03  .576537431144D+00 -.782104006343D-08
     .751817030483D-09  .100000000000D+01  .198200000000D+04  .000000000000D+00
     .240000000000D+01  .000000000000D+00  .232830643654D-08  .160000000000D+02
     .259206000000D+06  .400000000000D+01
 4 18  1  3  2  0  0.0  .301697291434D-04  .204636307899D-11  .000000000000D+00
     .600000000000D+01  .179781250000D+03  .534486549224D-08  .213277483379D+01
     .919401645660D-05  .931591936387D-02  .680424273014D-05  .515367082596D+04
     .266400000000D+06 -.931322574615D-07 -.218995287573D+01 -.206753611565D-06
     .980400830681D+00  .257625000000D+03  .893205194610D+00 -.792925885689D-08
     .396087927223D-09  .100000000000D+01  .198200000000D+04  .000000000000D+00
     .240000000000D+01  .630000000000D+02 -.195577740669D-07  .600000000000D+01
     .259206000000D+06  .400000000000D+01
 5 18  1  3  2  0  0.0 -.180029310286D-04  .102318153949D-11  .000000000000D+00
     .250000000000D+02  .163125000000D+02  .480877173322D-08  .167286244614D+01
     .873580574989D-06  .529598013964D-02  .104755163193D-04  .515361762238D+04
     .266400000000D+06 -.968575477600D-07  .905095936124D+00 -.130385160446D-07
     .947313980298D+00  .173187500000D+03  .632272055709D+00 -.807676500111D-08
     .653955811313D-09  .100000000000D+01  .198200000000D+04  .000000000000D+00
     .240000000000D+01  .000000000000D+00 -.107102096081D-07  .250000000000D+02
     .259206000000D+06  .400000000000D+01
 6 18  1  3  2  0  0.0  .414384994656D-03  .454747350886D-12  .000000000000D+00
     .620000000000D+02 -.138906250000D+03  .401838166744D-08 -.102026841462D+01
    -.722892582417D-05  .930441077799D-03  .987015664577D-05  .515355500221D+04
     .266400000000D+06  .223517417908D-07 -.125630157160D+00  .111758708954D-07
     .969887125178D+00  .196093750000D+03 -.127460525883D+01 -.785032699763D-08
    -.124648049234D-09  .100000000000D+01  .198200000000D+04  .000000000000D+00
     .240000000000D+01  .000000000000D+00  .465661287308D-08  .620000000000D+02
     .259206000000D+06  .400000000000D+01
 7 18  1  3  2  0  0.0  .257044099271D-03 -.545696821064D-11  .000000000000D+00
     .320000000000D+02  .248125000000D+02  .429232164957D-08 -.195194178914D+01
     .108033418655D-05  .111056856113D-01  .123996287584D-04  .515370596695D+04
     .266400000000D+06  .409781932831D-07  .303805297197D+01 -.126659870148D-06
     .960384740794D+00  .138093750000D+03 -.254696089928D+01 -.764781856234D-08
    -.451447376024D-09  .100000000000D+01  .198200000000D+04  .000000000000D+00
     .240000000000D+01  .000000000000D+00 -.111758708954D-07  .320000000000D+02
     .259206000000D+06  .400000000000D+01
 9 18  1  3  2  0  0.0  .489518046379D-03  .363797880709D-11  .000000000000D+00
     .820000000000D+02 -.587500000000D+01  .522093175848D-08  .116462914435D+01
    -.307336449623D-06  .113986711949D-02  .469945371151D-05  .515369356537D+04
     .266400000000D+06 -.186264514923D-07  .196002622408D+01 -.149011611938D-07
     .952492596191D+00  .282968750000D+03  .173342442827D+01 -.836141971526D-08
    -.739316509786D-10  .100000000000D+01  .198200000000D+04  .000000000000D+00
     .240000000000D+01  .000000000000D+00  .931322574615D-09  .820000000000D+02
     .259206000000D+06  .400000000000D+01
10 18  1  3  2  0  0.0  .140035990626D-03  .602540239925D-11  .000000000000D+00
     .460000000000D+02  .145625000000D+02  .448661545697D-08  .300850824271D+01
     .864267349243D-06  .311208853964D-02  .109616667032D-04  .515366529846D+04
     .266400000000D+06 -.223517417908D-07  .921393798813D+00  .167638063431D-07
     .960507371365D+00  .167593750000D+03 -.287644537582D+01 -.782032574796D-08
     .847535303247D-09  .100000000000D+01  .198200000000D+04  .000000000000D+00
     .240000000000D+01  .000000000000D+00  .186264514923D-08  .460000000000D+02
     .259206000000D+06  .400000000000D+01
11 18  1  3  2  0  0.0 -.732814893126D-03 -.125055521494D-11  .000000000000D+00
     .710000000000D+02 -.168031250000D+03  .568416533973D-08 -.195902453189D+01
    -.844337046146D-05  .167892994359D-01  .411644577980D-05  .515375656319D+04
     .266400000000D+06  .244006514549D-06 -.534465065815D+00  .394880771637D-06
     .903833193515D+00  .266281250000D+03  .172949612018D+01 -.868786188432D-08
    -.425017703693D-09  .100000000000D+01  .198200000000D+04  .000000000000D+00
     .240000000000D+01  .000000000000D+00 -.121071934700D-07  .710000000000D+02
     .259206000000D+06  .400000000000D+01
13 18  1  3  2  0  0.0 -.951457768679D-04 -.227373675443D-12  .000000000000D+00
     .130000000000D+02 -.182187500000D+02  .486163107788D-08 -.571382883179D+00
    -.990927219391D-06  .369116838556D-02  .540539622307D-05  .515364903259D+04
     .266400000000D+06 -.260770320892D-07  .208959425535D+01 -.558793544769D-07
     .968434340732D+00  .280625000000D+03  .164517763435D+01 -.822927135361D-08
    -.293226499775D-09  .100000000000D+01  .198200000000D+04  .000000000000D+00
     .240000000000D+01  .000000000000D+00 -.116415321827D-07  .130000000000D+02
     .259206000000D+06  .400000000000D+01
14 18  1  3  2  0  0.0 -.917273573577D-04 -.682121026330D-12  .000000000000D+00
     .190000000000D+02 -.150000000000D+02  .509306928964D-08  .582585741595D+00
    -.858679413795D-06  .926418183371D-02  .531785190105D-05  .515371242523D+04
     .266400000000D+06 -.128522515297D-06  .204865377900D+01  .316649675369D-07
     .960943784697D+00  .277000000000D+03 -.195475904459D+01 -.838213486385D-08
    -.303584074067D-09  .100000000000D+01  .198200000000D+04  .000000000000D+00
     .240000000000D+01  .000000000000D+00 -.977888703346D-08  .190000000000D+02
     .259206000000D+06  .400000000000D+01
15 18  1  3  2  0  0.0 -.357401557267D-03  .000000000000D+00  .000000000000D+00
     .910000000000D+02 -.609375000000D+01  .588667377502D-08  .575173614061D-01
    -.201165676117D-06  .100976763060D-01  .414997339249D-05  .515365631866D+04
     .266400000000D+06  .391155481339D-07  .189289356881D+01  .115483999252D-06
     .928033264219D+00  .281312500000D+03  .655356663081D+00 -.885608317713D-08
    -.800033324599D-10  .100000000000D+01  .198200000000D+04  .000000000000D+00
     .240000000000D+01  .000000000000D+00 -.107102096081D-07  .910000000000D+02
     .259206000000D+06  .400000000000D+01
16 18  1  3  2  0  0.0  .346307642758D-04 -.568434188608D-12  .000000000000D+00
     .860000000000D+02  .175593750000D+03  .399695220339D-08  .181547561344D+01
     .916048884392D-05  .963437813334D-02  .658258795738D-05  .515356805038D+04
     .266400000000D+06 -.141561031342D-06 -.213735067038D+01  .137835741043D-06
     .988245541628D+00  .268593750000D+03  .452164684257D+00 -.802712007606D-08
     .330728061866D-09  .100000000000D+01  .198200000000D+04  .000000000000D+00
     .240000000000D+01  .000000000000D+00 -.107102096081D-07  .860000000000D+02
     .259206000000D+06  .400000000000D+01
